{"type": "FeatureCollection", "features": [ {"type": "Feature", "properties": {"norad_id": 35290, "name": "COSMOS 2251 DEB", "group": "cosmos-2251-debris", "lat": -65.093770504411, "lon": 10.317260935713227, "alt_km": 634.7720286108897, "timestamp": "2025-12-18T07:01:54.985538+00:00", "meta": {"OBJECT_NAME": "COSMOS 2251 DEB", "OBJECT_ID": "1993-036AJU", "EPOCH": "2025-12-15T14:28:49.986048", "MEAN_MOTION": 14.80473727, "ECCENTRICITY": 0.00019506, "INCLINATION": 74.0058, "RA_OF_ASC_NODE": 53.7782, "ARG_OF_PERICENTER": 195.4132, "MEAN_ANOMALY": 164.6986, "EPHEMERIS_TYPE": 0, "CLASSIFICATION_TYPE": "U", "NORAD_CAT_ID": 35290, "ELEMENT_SET_NO": 999, "REV_AT_EPOCH": 88000, "BSTAR": 0.0012248752, "MEAN_MOTION_DOT": 9.351e-05, "MEAN_MOTION_DDOT": 0}, "tle": {"line1": "1 35290U 93036AJU 25349.60335632  .00009351  00000+0  12249-2 0  9998", "line2": "2 35290  74.0058  53.7782 0001950 195.4132 164.6986 14.80473727880006"}}, "geometry": {"type": "Point", "coordinates": [10.317260935713227, -65.093770504411]}}, {"type": "Feature", "properties": {"norad_id": 35432, "name": "COSMOS 2251 DEB", "group": "cosmos-2251-debris", "lat": -57.347444862079186, "lon": -22.728172085345655, "alt_km": 493.72053252686146, "timestamp": "2025-12-18T07:01:54.985548+00:00", "meta": {"OBJECT_NAME": "COSMOS 2251 DEB", "OBJECT_ID": "1993-036AKA", "EPOCH": "2025-12-17T10:48:56.006208", "MEAN_MOTION": 15.23770731, "ECCENTRICITY": 0.00123581, "INCLINATION": 74.0195, "RA_OF_ASC_NODE": 5.6133, "ARG_OF_PERICENTER": 333.6233, "MEAN_ANOMALY": 26.4335, "EPHEMERIS_TYPE": 0, "CLASSIFICATION_TYPE": "U", "NORAD_CAT_ID": 35432, "ELEMENT_SET_NO": 999, "REV_AT_EPOCH": 87575, "BSTAR": 0.0028503415, "MEAN_MOTION_DOT": 0.00069351, "MEAN_MOTION_DDOT": 0}, "tle": {"line1": "1 35432U 93036AKA 25351.45064822  .00069351  00000+0  28503-2 0  9998", "line2": "2 35432  74.0195   5.6133 0012358 333.6233  26.4335 15.23770731875756"}}, "geometry": {"type": "Point", "coordinates": [-22.728172085345655, -57.347444862079186]}}, {"type": "Feature", "properties": {"norad_id": 35433, "name": "COSMOS 2251 DEB", "group": "cosmos-2251-debris", "lat": 33.453795138970165, "lon": 137.37200861772334, "alt_km": 783.2974666069777, "timestamp": "2025-12-18T07:01:54.985558+00:00", "meta": {"OBJECT_NAME": "COSMOS 2251 DEB", "OBJECT_ID": "1993-036AKB", "EPOCH": "2025-12-10T18:27:52.031808", "MEAN_MOTION": 14.34742553, "ECCENTRICITY": 0.00254013, "INCLINATION": 74.0339, "RA_OF_ASC_NODE": 342.0559, "ARG_OF_PERICENTER": 37.4572, "MEAN_ANOMALY": 142.4072, "EPHEMERIS_TYPE": 0, "CLASSIFICATION_TYPE": "U", "NORAD_CAT_ID": 35433, "ELEMENT_SET_NO": 999, "REV_AT_EPOCH": 86552, "BSTAR": 0.00041847558, "MEAN_MOTION_DOT": 1.164e-05, "MEAN_MOTION_DDOT": 0}, "tle": {"line1": "1 35433U 93036AKB 25344.76935222  .00001164  00000+0  41848-3 0  9992", "line2": "2 35433  74.0339 342.0559 0025401  37.4572 142.4072 14.34742553865528"}}, "geometry": {"type": "Point", "coordinates": [137.37200861772334, 33.453795138970165]}}, {"type": "Feature", "properties": {"norad_id": 35434, "name": "COSMOS 2251 DEB", "group": "cosmos-2251-debris", "lat": -54.86714975413869, "lon": 47.60124384462165, "alt_km": 761.0252893078523, "timestamp": "2025-12-18T07:01:54.985568+00:00", "meta": {"OBJECT_NAME": "COSMOS 2251 DEB", "OBJECT_ID": "1993-036AKC", "EPOCH": "2025-12-13T21:29:58.278624", "MEAN_MOTION": 14.25692247, "ECCENTRICITY": 0.00874643, "INCLINATION": 74.0404, "RA_OF_ASC_NODE": 211.5388, "ARG_OF_PERICENTER": 282.0357, "MEAN_ANOMALY": 77.0999, "EPHEMERIS_TYPE": 0, "CLASSIFICATION_TYPE": "U", "NORAD_CAT_ID": 35434, "ELEMENT_SET_NO": 999, "REV_AT_EPOCH": 86134, "BSTAR": 0.00076141319, "MEAN_MOTION_DOT": 1.854e-05, "MEAN_MOTION_DDOT": 0}, "tle": {"line1": "1 35434U 93036AKC 25347.89581341  .00001854  00000+0  76141-3 0  9999", "line2": "2 35434  74.0404 211.5388 0087464 282.0357  77.0999 14.25692247861349"}}, "geometry": {"type": "Point", "coordinates": [47.60124384462165, -54.86714975413869]}}, {"type": "Feature", "properties": {"norad_id": 35435, "name": "COSMOS 2251 DEB", "group": "cosmos-2251-debris", "lat": 45.06756984012614, "lon": 109.83964379602683, "alt_km": 633.4655246342118, "timestamp": "2025-12-18T07:01:54.985578+00:00", "meta": {"OBJECT_NAME": "COSMOS 2251 DEB", "OBJECT_ID": "1993-036AKD", "EPOCH": "2025-12-16T16:09:04.180320", "MEAN_MOTION": 14.78596665, "ECCENTRICITY": 0.00074751, "INCLINATION": 74.0112, "RA_OF_ASC_NODE": 96.3245, "ARG_OF_PERICENTER": 191.48, "MEAN_ANOMALY": 236.2154, "EPHEMERIS_TYPE": 0, "CLASSIFICATION_TYPE": "U", "NORAD_CAT_ID": 35435, "ELEMENT_SET_NO": 999, "REV_AT_EPOCH": 87597, "BSTAR": 0.0016558957, "MEAN_MOTION_DOT": 0.00012113, "MEAN_MOTION_DDOT": 0}, "tle": {"line1": "1 35435U 93036AKD 25350.67296505  .00012113  00000+0  16559-2 0  9991", "line2": "2 35435  74.0112  96.3245 0007475 191.4800 236.2154 14.78596665875978"}}, "geometry": {"type": "Point", "coordinates": [109.83964379602683, 45.06756984012614]}}, {"type": "Feature", "properties": {"norad_id": 35439, "name": "COSMOS 2251 DEB", "group": "cosmos-2251-debris", "lat": 61.488517794675495, "lon": 157.06438554433052, "alt_km": 1030.292967685864, "timestamp": "2025-12-18T07:01:54.985587+00:00", "meta": {"OBJECT_NAME": "COSMOS 2251 DEB", "OBJECT_ID": "1993-036AKH", "EPOCH": "2025-12-17T04:00:48.812832", "MEAN_MOTION": 13.92829249, "ECCENTRICITY": 0.02424604, "INCLINATION": 74.0187, "RA_OF_ASC_NODE": 127.1529, "ARG_OF_PERICENTER": 295.4748, "MEAN_ANOMALY": 245.9503, "EPHEMERIS_TYPE": 0, "CLASSIFICATION_TYPE": "U", "NORAD_CAT_ID": 35439, "ELEMENT_SET_NO": 999, "REV_AT_EPOCH": 84022, "BSTAR": 0.0013909461, "MEAN_MOTION_DOT": 2.269e-05, "MEAN_MOTION_DDOT": 0}, "tle": {"line1": "1 35439U 93036AKH 25351.16723163  .00002269  00000+0  13909-2 0  9992", "line2": "2 35439  74.0187 127.1529 0242460 295.4748 245.9503 13.92829249840220"}}, "geometry": {"type": "Point", "coordinates": [157.06438554433052, 61.488517794675495]}}, {"type": "Feature", "properties": {"norad_id": 35440, "name": "COSMOS 2251 DEB", "group": "cosmos-2251-debris", "lat": -31.208684819305706, "lon": 26.866642692426367, "alt_km": 697.5123908368314, "timestamp": "2025-12-18T07:01:54.985597+00:00", "meta": {"OBJECT_NAME": "COSMOS 2251 DEB", "OBJECT_ID": "1993-036AKJ", "EPOCH": "2025-12-17T20:15:19.490976", "MEAN_MOTION": 14.68838958, "ECCENTRICITY": 0.00695054, "INCLINATION": 74.0134, "RA_OF_ASC_NODE": 197.7346, "ARG_OF_PERICENTER": 337.3687, "MEAN_ANOMALY": 22.4422, "EPHEMERIS_TYPE": 0, "CLASSIFICATION_TYPE": "U", "NORAD_CAT_ID": 35440, "ELEMENT_SET_NO": 999, "REV_AT_EPOCH": 68840, "BSTAR": 0.00030670457, "MEAN_MOTION_DOT": 1.824e-05, "MEAN_MOTION_DDOT": 0}, "tle": {"line1": "1 35440U 93036AKJ 25351.84397559  .00001824  00000+0  30670-3 0  9996", "line2": "2 35440  74.0134 197.7346 0069505 337.3687  22.4422 14.68838958688408"}}, "geometry": {"type": "Point", "coordinates": [26.866642692426367, -31.208684819305706]}}, {"type": "Feature", "properties": {"norad_id": 35441, "name": "COSMOS 2251 DEB", "group": "cosmos-2251-debris", "lat": 40.73732274986166, "lon": -58.296396718300066, "alt_km": 700.713204360798, "timestamp": "2025-12-18T07:01:54.985608+00:00", "meta": {"OBJECT_NAME": "COSMOS 2251 DEB", "OBJECT_ID": "1993-036AKK", "EPOCH": "2025-12-15T03:19:30.492768", "MEAN_MOTION": 14.62637993, "ECCENTRICITY": 0.00365994, "INCLINATION": 74.1346, "RA_OF_ASC_NODE": 293.5313, "ARG_OF_PERICENTER": 189.4895, "MEAN_ANOMALY": 170.5586, "EPHEMERIS_TYPE": 0, "CLASSIFICATION_TYPE": "U", "NORAD_CAT_ID": 35441, "ELEMENT_SET_NO": 999, "REV_AT_EPOCH": 87465, "BSTAR": 0.00095338273, "MEAN_MOTION_DOT": 4.868e-05, "MEAN_MOTION_DDOT": 0}, "tle": {"line1": "1 35441U 93036AKK 25349.13854737  .00004868  00000+0  95338-3 0  9995", "line2": "2 35441  74.1346 293.5313 0036599 189.4895 170.5586 14.62637993874658"}}, "geometry": {"type": "Point", "coordinates": [-58.296396718300066, 40.73732274986166]}}, {"type": "Feature", "properties": {"norad_id": 35442, "name": "COSMOS 2251 DEB", "group": "cosmos-2251-debris", "lat": 2.822379695784987, "lon": 88.92403489638578, "alt_km": 615.868649587017, "timestamp": "2025-12-18T07:01:54.985617+00:00", "meta": {"OBJECT_NAME": "COSMOS 2251 DEB", "OBJECT_ID": "1993-036AKL", "EPOCH": "2025-12-17T00:17:27.406464", "MEAN_MOTION": 14.84602937, "ECCENTRICITY": 0.00037296, "INCLINATION": 74.0275, "RA_OF_ASC_NODE": 90.6565, "ARG_OF_PERICENTER": 70.0102, "MEAN_ANOMALY": 290.1478, "EPHEMERIS_TYPE": 0, "CLASSIFICATION_TYPE": "U", "NORAD_CAT_ID": 35442, "ELEMENT_SET_NO": 999, "REV_AT_EPOCH": 87416, "BSTAR": 0.0016861079, "MEAN_MOTION_DOT": 0.00014243, "MEAN_MOTION_DDOT": 0}, "tle": {"line1": "1 35442U 93036AKL 25351.01212276  .00014243  00000+0  16861-2 0  9993", "line2": "2 35442  74.0275  90.6565 0003729  70.0102 290.1478 14.84602937874168"}}, "geometry": {"type": "Point", "coordinates": [88.92403489638578, 2.822379695784987]}}, {"type": "Feature", "properties": {"norad_id": 35443, "name": "COSMOS 2251 DEB", "group": "cosmos-2251-debris", "lat": -69.3789546046602, "lon": -89.41700766611196, "alt_km": 633.5626799828106, "timestamp": "2025-12-18T07:01:54.985627+00:00", "meta": {"OBJECT_NAME": "COSMOS 2251 DEB", "OBJECT_ID": "1993-036AKM", "EPOCH": "2025-12-15T08:48:26.743680", "MEAN_MOTION": 14.96932548, "ECCENTRICITY": 0.00731181, "INCLINATION": 73.9871, "RA_OF_ASC_NODE": 326.2641, "ARG_OF_PERICENTER": 107.3149, "MEAN_ANOMALY": 253.6052, "EPHEMERIS_TYPE": 0, "CLASSIFICATION_TYPE": "U", "NORAD_CAT_ID": 35443, "ELEMENT_SET_NO": 999, "REV_AT_EPOCH": 86917, "BSTAR": 0.0020713088, "MEAN_MOTION_DOT": 0.00025182, "MEAN_MOTION_DDOT": 0}, "tle": {"line1": "1 35443U 93036AKM 25349.36697620  .00025182  00000+0  20713-2 0  9994", "line2": "2 35443  73.9871 326.2641 0073118 107.3149 253.6052 14.96932548869170"}}, "geometry": {"type": "Point", "coordinates": [-89.41700766611196, -69.3789546046602]}}]}